NORAD_CAT_ID,OBJECT_NAME,OBJECT_TYPE,EPOCH,MEAN_MOTION,ECCENTRICITY,INCLINATION,RA_OF_ASC_NODE,ARG_OF_PERICENTER,MEAN_ANOMALY,BSTAR,MEAN_MOTION_DOT,MEAN_MOTION_DDOT,TLE_LINE0,TLE_LINE1,TLE_LINE2,SEMIMAJOR_AXIS,PERIOD,APOGEE,PERIGEE,DECAYED
53568.0,STARLINK-4583,PAYLOAD,2023-02-09 02:37:49,15.08833835,0.0001491,53.2203,62.4222,95.6185,264.4977,-1.9085e-05,-5.92e-06,0.0,0 STARLINK-4583,1 53568U 22101AT  23040.10959803 -.00000592  00000-0 -19085-4 0  9992,2 53568  53.2203  62.4222 0001491  95.6185 264.4977 15.08833835 26675,6917.899,95.438,540.796,538.733,0.0
53568.0,STARLINK-4583,PAYLOAD,2023-02-09 10:34:43,15.08851589,0.0001371,53.2204,60.9343,96.7922,263.3226,1.459e-05,-5.6e-07,0.0,0 STARLINK-4583,1 53568U 22101AT  23040.44078522 -.00000056  00000-0  14590-4 0  9999,2 53568  53.2204  60.9343 0001371  96.7922 263.3226 15.08851589 27415,6917.845,95.437,540.658,538.762,0.0
53568.0,STARLINK-4583,PAYLOAD,2023-02-09 18:31:40,15.0883322,0.0001373,53.2223,59.4426,136.5235,223.5865,-1.4519e-05,-5.19e-06,0.0,0 STARLINK-4583,1 53568U 22101AT  23040.77199436 -.00000519  00000-0 -14519-4 0  9999,2 53568  53.2223  59.4426 0001373 136.5235 223.5865 15.08833220 27467,6917.901,95.438,540.716,538.816,0.0
53568.0,STARLINK-4583,PAYLOAD,2023-02-10 00:53:13,15.08828235,0.000194,53.2206,58.2614,85.8879,274.2335,7.0574e-06,-1.76e-06,0.0,0 STARLINK-4583,1 53568U 22101AT  23041.03696379 -.00000176  00000-0  70574-5 0  9999,2 53568  53.2206  58.2614 0001940  85.8879 274.2335 15.08828235 27504,6917.916,95.438,541.123,538.439,0.0
53568.0,STARLINK-4583,PAYLOAD,2023-02-10 07:14:45,15.08837507,0.0001609,53.2198,57.0745,95.9839,264.1337,-4.2237e-05,-9.6e-06,0.0,0 STARLINK-4583,1 53568U 22101AT  23041.30192062 -.00000960  00000-0 -42237-4 0  9995,2 53568  53.2198  57.0745 0001609  95.9839 264.1337 15.08837507 26855,6917.888,95.438,540.866,538.64,0.0
53568.0,STARLINK-4583,PAYLOAD,2023-02-11 03:54:45,15.0884494,0.0002047,53.2214,53.2046,124.1321,235.9866,2.717e-05,1.44e-06,0.0,0 STARLINK-4583,1 53568U 22101AT  23042.16303113  .00000144  00000-0  27170-4 0  9992,2 53568  53.2214  53.2046 0002047 124.1321 235.9866 15.08844940 26980,6917.865,95.437,541.146,538.314,0.0
53568.0,STARLINK-4583,PAYLOAD,2023-02-11 05:30:08,15.08846086,0.0002084,53.222,52.9078,123.5035,236.6157,4.0347e-05,3.54e-06,0.0,0 STARLINK-4583,1 53568U 22101AT  23042.22926977  .00000354  00000-0  40347-4 0  9992,2 53568  53.2220  52.9078 0002084 123.5035 236.6157 15.08846086 27686,6917.862,95.437,541.168,538.285,0.0
53568.0,STARLINK-4583,PAYLOAD,2023-02-11 07:05:31,15.08847121,0.0001638,53.2218,52.6112,119.9196,240.1959,5.9971e-05,6.67e-06,0.0,0 STARLINK-4583,1 53568U 22101AT  23042.29550798  .00000667  00000-0  59971-4 0  9993,2 53568  53.2218  52.6112 0001638 119.9196 240.1959 15.08847121 27692,6917.859,95.437,540.857,538.59,0.0
53568.0,STARLINK-4583,PAYLOAD,2023-02-12 05:20:56,15.08827897,0.0001507,53.2199,48.445,122.2925,237.8213,0.0001107,1.474e-05,0.0,0 STARLINK-4583,1 53568U 22101AT  23043.22287829  .00001474  00000-0  11070-3 0  9993,2 53568  53.2199  48.4450 0001507 122.2925 237.8213 15.08827897 27144,6917.917,95.438,540.825,538.74,0.0
53568.0,STARLINK-4583,PAYLOAD,2023-02-13 06:47:07,15.08839048,0.0001514,53.2209,43.692,93.4863,266.6303,-2.7505e-05,-7.26e-06,0.0,0 STARLINK-4583,1 53568U 22101AT  23044.28272123 -.00000726  00000-0 -27505-4 0  9993,2 53568  53.2209  43.6920 0001514  93.4863 266.6303 15.08839048 27302,6917.883,95.438,540.796,538.701,0.0
53568.0,STARLINK-4583,PAYLOAD,2023-02-14 00:16:22,15.08829663,0.0001347,53.2198,40.4199,80.9531,279.1614,1.0766e-05,-1.17e-06,0.0,0 STARLINK-4583,1 53568U 22101AT  23045.01136812 -.00000117  00000-0  10766-4 0  9993,2 53568  53.2198  40.4199 0001347  80.9531 279.1614 15.08829663 27417,6917.912,95.438,540.709,538.845,0.0
53568.0,STARLINK-4583,PAYLOAD,2023-02-14 06:37:54,15.0883776,0.0001534,53.2217,39.2346,97.6594,262.4572,7.3349e-05,8.79e-06,0.0,0 STARLINK-4583,1 53568U 22101AT  23045.27632242  .00000879  00000-0  73349-4 0  9999,2 53568  53.2217  39.2346 0001534  97.6594 262.4572 15.08837760 27450,6917.887,95.438,540.813,538.691,0.0
53568.0,STARLINK-4583,PAYLOAD,2023-02-15 03:17:55,15.08835462,0.0001204,53.2221,35.3676,88.4606,271.6524,4.6065e-05,4.45e-06,0.0,0 STARLINK-4583,1 53568U 22101AT  23046.13744785  .00000445  00000-0  46065-4 0  9995,2 53568  53.2221  35.3676 0001204  88.4606 271.6524 15.08835462 27584,6917.894,95.438,540.592,538.926,0.0
53568.0,STARLINK-4583,PAYLOAD,2023-02-15 09:39:27,15.08846473,0.0001322,53.2193,34.1716,115.0426,245.0704,0.00010286,1.35e-05,0.0,0 STARLINK-4583,1 53568U 22101AT  23046.40239711  .00001350  00000-0  10286-3 0  9994,2 53568  53.2193  34.1716 0001322 115.0426 245.0704 15.08846473 27626,6917.861,95.437,540.64,538.811,0.0
53568.0,STARLINK-4583,PAYLOAD,2023-02-15 16:00:59,15.08845669,0.0001264,53.2197,32.981,76.0651,284.0481,8.7005e-05,1.097e-05,0.0,0 STARLINK-4583,1 53568U 22101AT  23046.66735743  .00001097  00000-0  87005-4 0  9990,2 53568  53.2197  32.9810 0001264  76.0651 284.0481 15.08845669 28354,6917.863,95.437,540.602,538.854,0.0
53568.0,STARLINK-4583,PAYLOAD,2023-02-16 03:08:41,15.08838945,0.0001205,53.2207,30.8998,80.1626,279.9502,0.00011679,1.571e-05,0.0,0 STARLINK-4583,1 53568U 22101AT  23047.13103943  .00001571  00000-0  11679-3 0  9994,2 53568  53.2207  30.8998 0001205  80.1626 279.9502 15.08838945 27730,6917.884,95.438,540.582,538.915,0.0
53568.0,STARLINK-4583,PAYLOAD,2023-02-16 09:30:12,15.08867389,9.61e-05,53.2188,29.7132,108.8356,251.2741,0.00018296,2.627e-05,0.0,0 STARLINK-4583,1 53568U 22101AT  23047.39597710  .00002627  00000-0  18296-3 0  9996,2 53568  53.2188  29.7132 0000961 108.8356 251.2741 15.08867389 27777,6917.797,95.436,540.326,538.997,0.0
53568.0,STARLINK-4583,PAYLOAD,2023-02-16 15:51:48,15.08817716,0.0001584,53.2201,28.5264,78.7479,281.3691,-0.00013399,-2.418e-05,0.0,0 STARLINK-4583,1 53568U 22101AT  23047.66098118 -.00002418  00000-0 -13399-3 0  9993,2 53568  53.2201  28.5264 0001584  78.7479 281.3691 15.08817716 27811,6917.949,95.439,540.909,538.718,0.0
53568.0,STARLINK-4583,PAYLOAD,2023-02-17 02:59:30,15.08831827,0.0001255,53.22,26.4408,102.6821,257.4311,-0.00011523,-2.121e-05,0.0,0 STARLINK-4583,1 53568U 22101AT  23048.12465506 -.00002121  00000-0 -11523-3 0  9992,2 53568  53.2200  26.4408 0001255 102.6821 257.4311 15.08831827 27889,6917.905,95.438,540.639,538.902,0.0
53568.0,STARLINK-4583,PAYLOAD,2023-02-17 06:10:16,15.08831305,0.0001628,53.2224,25.8454,111.4796,248.637,-0.00010926,-2.026e-05,0.0,0 STARLINK-4583,1 53568U 22101AT  23048.25713561 -.00002026  00000-0 -10926-3 0  9993,2 53568  53.2224  25.8454 0001628 111.4796 248.6370 15.08831305 28599,6917.907,95.438,540.898,538.646,0.0
53568.0,STARLINK-4583,PAYLOAD,2023-02-17 15:42:35,15.08834716,0.0001315,53.2195,24.0623,86.2948,273.8194,-0.00012832,-2.329e-05,0.0,0 STARLINK-4583,1 53568U 22101AT  23048.65457475 -.00002329  00000-0 -12832-3 0  9990,2 53568  53.2195  24.0623 0001315  86.2948 273.8194 15.08834716 28656,6917.897,95.438,540.671,538.852,0.0
53568.0,STARLINK-4583,PAYLOAD,2023-02-18 04:25:40,15.08832639,0.0001118,53.2187,21.6847,92.0534,268.0586,-4.398e-05,-9.88e-06,0.0,0 STARLINK-4583,1 53568U 22101AT  23049.18449586 -.00000988  00000-0 -43980-4 0  9991,2 53568  53.2187  21.6847 0001118  92.0534 268.0586 15.08832639 28041,6917.903,95.438,540.541,538.994,0.0
53568.0,STARLINK-4583,PAYLOAD,2023-02-18 15:33:21,15.08853403,0.0001244,53.2193,19.6034,97.211,262.9024,-9.0504e-05,-1.728e-05,0.0,0 STARLINK-4583,1 53568U 22101AT  23049.64816406 -.00001728  00000-0 -90504-4 0  9998,2 53568  53.2193  19.6034 0001244  97.2110 262.9024 15.08853403 28110,6917.839,95.437,540.565,538.844,0.0
53568.0,STARLINK-4583,PAYLOAD,2023-02-18 23:30:17,15.08808786,0.000145,53.2193,18.1167,88.4688,271.6471,0.0005453,8.394e-05,0.0,0 STARLINK-4583,1 53568U 22101AT  23049.97937282  .00008394  00000-0  54530-3 0  9992,2 53568  53.2193  18.1167 0001450  88.4688 271.6471 15.08808786 28164,6917.976,95.44,540.844,538.838,0.0
53568.0,STARLINK-4583,PAYLOAD,2023-02-19 07:27:11,15.08866012,0.0001351,53.2199,16.6287,89.5025,270.6122,2.0396e-05,3.7e-07,0.0,0 STARLINK-4583,1 53568U 22101AT  23050.31055345  .00000037  00000-0  20396-4 0  9993,2 53568  53.2199  16.6287 0001351  89.5025 270.6122 15.08866012 28217,6917.801,95.436,540.6,538.731,0.0
53568.0,STARLINK-4583,PAYLOAD,2023-02-20 04:07:13,15.0884014,0.0001199,53.22,12.7642,101.3862,258.7265,8.5779e-05,1.078e-05,0.0,0 STARLINK-4583,1 53568U 22101AT  23051.17168842  .00001078  00000-0  85779-4 0  9997,2 53568  53.2200  12.7642 0001199 101.3862 258.7265 15.08840140 28347,6917.88,95.438,540.574,538.916,0.0
53568.0,STARLINK-4583,PAYLOAD,2023-02-21 02:22:38,15.08839395,0.0001034,53.2185,8.6021,99.7894,260.3215,-5.9337e-05,-1.232e-05,0.0,0 STARLINK-4583,1 53568U 22101AT  23052.09905343 -.00001232  00000-0 -59337-4 0  9999,2 53568  53.2185   8.6021 0001034  99.7894 260.3215 15.08839395 28486,6917.882,95.438,540.463,539.032,0.0
53568.0,STARLINK-4583,PAYLOAD,2023-02-21 13:30:19,15.0884247,0.0001445,53.2189,6.5208,94.3408,265.7749,-1.0158e-05,-4.5e-06,0.0,0 STARLINK-4583,1 53568U 22101AT  23052.56272890 -.00000450  00000-0 -10158-4 0  9994,2 53568  53.2189   6.5208 0001445  94.3408 265.7749 15.08842470 29246,6917.873,95.437,540.737,538.738,0.0
53568.0,STARLINK-4583,PAYLOAD,2023-02-21 19:51:52,15.08835412,8.61e-05,53.2184,5.3339,105.7745,254.3343,5.7949e-07,-2.78e-06,0.0,0 STARLINK-4583,1 53568U 22101AT  23052.82769152 -.00000278  00000-0  57949-6 0  9993,2 53568  53.2184   5.3339 0000861 105.7745 254.3343 15.08835412 29281,6917.894,95.438,540.355,539.164,0.0
53568.0,STARLINK-4583,PAYLOAD,2023-02-22 03:48:48,15.08839146,9.64e-05,53.2191,3.8473,106.3601,253.7497,6.9695e-05,8.22e-06,0.0,0 STARLINK-4583,1 53568U 22101AT  23053.15888900  .00000822  00000-0  69695-4 0  9996,2 53568  53.2191   3.8473 0000964 106.3601 253.7497 15.08839146 28643,6917.883,95.438,540.415,539.081,0.0
